{"type":"FeatureCollection","source":"URA Master Plan 2019 Subzone Boundary (No Sea), via data.gov.sg","dataset":"d_8594ae9ff96d0c708bc2af633048edfb","features":[{"type":"Feature","properties":{"cluster":"one-north","clusterLabel":"one-north","subzone":"ONE NORTH","planningArea":"QUEENSTOWN","region":"CENTRAL REGION","source":"URA Master Plan 2019 Subzone Boundary (No Sea), via data.gov.sg"},"geometry":{"type":"Polygon","coordinates":[[[103.79146,1.30778],[103.7912,1.30787],[103.79116,1.3079],[103.79112,1.30791],[103.79022,1.30818],[103.78963,1.30827],[103.78952,1.30827],[103.78891,1.30826],[103.7887,1.30824],[103.7885,1.30821],[103.78614,1.30773],[103.78561,1.30767],[103.78536,1.3077],[103.78527,1.30771],[103.78523,1.30701],[103.78522,1.30691],[103.78506,1.30652],[103.78514,1.30649],[103.78519,1.30647],[103.78528,1.30619],[103.78551,1.30628],[103.78555,1.30629],[103.78607,1.30572],[103.78639,1.30572],[103.78688,1.30531],[103.78687,1.3053],[103.78686,1.30529],[103.78684,1.30526],[103.78683,1.30523],[103.78683,1.30523],[103.78683,1.30522],[103.78683,1.30522],[103.78681,1.30518],[103.78681,1.30512],[103.7868,1.30507],[103.78678,1.305],[103.78677,1.30495],[103.78674,1.3049],[103.78673,1.30489],[103.78666,1.30484],[103.78665,1.30484],[103.78659,1.30481],[103.78635,1.3048],[103.78583,1.30477],[103.78595,1.30471],[103.78631,1.30463],[103.78631,1.30463],[103.78628,1.30442],[103.78628,1.3044],[103.78627,1.30439],[103.78627,1.30439],[103.78625,1.30439],[103.78623,1.30438],[103.78622,1.30438],[103.78617,1.30436],[103.78612,1.30433],[103.78608,1.30429],[103.78604,1.30425],[103.78602,1.30422],[103.78601,1.30419],[103.786,1.30416],[103.786,1.30415],[103.78599,1.30415],[103.78592,1.304],[103.78596,1.30397],[103.78608,1.30388],[103.78615,1.30383],[103.78639,1.30376],[103.78706,1.30366],[103.78729,1.30357],[103.78743,1.30344],[103.78738,1.30337],[103.78734,1.3033],[103.7873,1.30323],[103.78728,1.30318],[103.78725,1.30314],[103.78722,1.30306],[103.78717,1.30295],[103.78714,1.30287],[103.78711,1.3028],[103.78705,1.30259],[103.78697,1.30216],[103.78695,1.30206],[103.78678,1.30166],[103.78602,1.30045],[103.7856,1.29973],[103.7852,1.29929],[103.78513,1.29916],[103.78469,1.29867],[103.7841,1.29818],[103.78372,1.29786],[103.78348,1.29765],[103.78334,1.29754],[103.78334,1.29754],[103.78311,1.29738],[103.78405,1.29654],[103.78597,1.29432],[103.78608,1.29419],[103.78661,1.29343],[103.78661,1.29343],[103.78757,1.29271],[103.79138,1.29026],[103.79279,1.28911],[103.79345,1.28975],[103.79377,1.29],[103.79419,1.29026],[103.79454,1.29046],[103.79471,1.29056],[103.79625,1.29118],[103.79782,1.29196],[103.79826,1.29234],[103.79892,1.29342],[103.79901,1.29377],[103.79866,1.29417],[103.79843,1.29482],[103.79823,1.29508],[103.79821,1.2951],[103.79807,1.29529],[103.79807,1.29529],[103.79795,1.29544],[103.79779,1.29561],[103.79779,1.29562],[103.79774,1.29567],[103.79774,1.29567],[103.7977,1.29572],[103.79769,1.29573],[103.79759,1.29585],[103.79758,1.29585],[103.79757,1.29586],[103.79746,1.29599],[103.79708,1.29641],[103.79699,1.29651],[103.79699,1.29651],[103.79684,1.29668],[103.79683,1.29669],[103.79679,1.29673],[103.79677,1.29676],[103.79677,1.29676],[103.79666,1.29689],[103.79666,1.29689],[103.79661,1.29695],[103.7963,1.29732],[103.79625,1.29741],[103.79625,1.29741],[103.79592,1.29807],[103.79591,1.29808],[103.79585,1.29825],[103.79584,1.29828],[103.79584,1.29828],[103.7958,1.29842],[103.7958,1.29842],[103.7958,1.29843],[103.7958,1.29843],[103.7958,1.29843],[103.7958,1.29843],[103.7958,1.29843],[103.7958,1.29843],[103.7958,1.29844],[103.79579,1.29844],[103.79579,1.29845],[103.79579,1.29845],[103.79576,1.29856],[103.79574,1.2986],[103.79572,1.29868],[103.79572,1.29868],[103.79572,1.29869],[103.79572,1.29869],[103.79571,1.2987],[103.79571,1.2987],[103.79568,1.2988],[103.79568,1.2988],[103.79565,1.29892],[103.79565,1.29892],[103.79562,1.29902],[103.79562,1.29902],[103.79559,1.29912],[103.79558,1.29915],[103.79558,1.29915],[103.79556,1.29923],[103.79554,1.29929],[103.79554,1.29929],[103.79551,1.29941],[103.79551,1.29941],[103.79549,1.29945],[103.79549,1.29945],[103.79548,1.29949],[103.79548,1.29949],[103.79547,1.29953],[103.79547,1.29953],[103.79546,1.29958],[103.79546,1.29958],[103.79544,1.29963],[103.79544,1.29963],[103.79544,1.29964],[103.79544,1.29964],[103.79543,1.29967],[103.79543,1.29967],[103.79543,1.29967],[103.79543,1.29967],[103.79543,1.29968],[103.79543,1.29968],[103.79542,1.29968],[103.79541,1.29972],[103.79541,1.29972],[103.79539,1.29977],[103.79539,1.29977],[103.79537,1.2998],[103.79537,1.2998],[103.79536,1.29983],[103.79535,1.29985],[103.79535,1.29985],[103.79533,1.2999],[103.79533,1.2999],[103.79531,1.29994],[103.79531,1.29994],[103.79529,1.29998],[103.79529,1.29998],[103.79527,1.30003],[103.79527,1.30003],[103.79525,1.30008],[103.79525,1.30008],[103.79524,1.30012],[103.79522,1.30015],[103.79522,1.30016],[103.79522,1.30016],[103.7952,1.30021],[103.7952,1.30021],[103.79518,1.30026],[103.79516,1.3003],[103.79516,1.3003],[103.79516,1.30031],[103.79514,1.30033],[103.79514,1.30033],[103.79513,1.30037],[103.79513,1.30037],[103.79512,1.30039],[103.79511,1.30042],[103.79511,1.30042],[103.7951,1.30043],[103.7951,1.30043],[103.7951,1.30044],[103.7951,1.30044],[103.79505,1.30056],[103.79502,1.30064],[103.79502,1.30064],[103.79501,1.30064],[103.79497,1.30074],[103.79492,1.30084],[103.7949,1.3009],[103.79486,1.30099],[103.79466,1.30143],[103.79466,1.30143],[103.79466,1.30143],[103.79465,1.30145],[103.79465,1.30145],[103.79465,1.30145],[103.79465,1.30145],[103.79464,1.30146],[103.79464,1.30146],[103.79463,1.30148],[103.79463,1.30148],[103.79462,1.3015],[103.79462,1.3015],[103.79458,1.30158],[103.79436,1.30177],[103.79433,1.30183],[103.79426,1.30197],[103.79425,1.30198],[103.79409,1.30227],[103.79406,1.30233],[103.79405,1.30234],[103.79403,1.30238],[103.79403,1.30238],[103.79403,1.30238],[103.79403,1.30238],[103.79402,1.30241],[103.79396,1.30251],[103.79392,1.30258],[103.79392,1.30258],[103.79389,1.30265],[103.79389,1.30265],[103.79387,1.30268],[103.79386,1.30268],[103.79386,1.30268],[103.79386,1.30269],[103.79385,1.30272],[103.79385,1.30272],[103.79383,1.30274],[103.79383,1.30274],[103.79382,1.30275],[103.7938,1.30275],[103.7938,1.30275],[103.7938,1.30276],[103.79377,1.30277],[103.79377,1.30277],[103.79374,1.30278],[103.79374,1.30278],[103.79374,1.30278],[103.79374,1.30278],[103.79374,1.30278],[103.79372,1.30279],[103.79372,1.30279],[103.79371,1.30279],[103.79369,1.30284],[103.79369,1.30284],[103.7936,1.30302],[103.79347,1.30328],[103.79346,1.30329],[103.79346,1.3033],[103.79346,1.3033],[103.79331,1.30358],[103.7933,1.30359],[103.79329,1.30361],[103.79314,1.3039],[103.79304,1.30411],[103.79284,1.30446],[103.79281,1.30452],[103.79281,1.30453],[103.79281,1.30453],[103.79281,1.30453],[103.79281,1.30453],[103.79281,1.30453],[103.7928,1.30454],[103.7928,1.30454],[103.79279,1.30456],[103.79279,1.30457],[103.79278,1.30458],[103.79278,1.30458],[103.79278,1.30458],[103.79278,1.30459],[103.79278,1.30459],[103.79277,1.3046],[103.79277,1.3046],[103.79277,1.30461],[103.79259,1.30496],[103.79258,1.30499],[103.79258,1.30499],[103.79255,1.30504],[103.79255,1.30504],[103.79253,1.30507],[103.79252,1.30509],[103.79252,1.30509],[103.79226,1.30554],[103.79226,1.30554],[103.79177,1.30642],[103.79177,1.30642],[103.79165,1.30665],[103.79165,1.30665],[103.79165,1.30665],[103.79142,1.30743],[103.79155,1.30748],[103.79153,1.30754],[103.79146,1.30778]]]}},{"type":"Feature","properties":{"cluster":"cbd","clusterLabel":"CBD financial core","subzone":"TANJONG PAGAR","planningArea":"DOWNTOWN CORE","region":"CENTRAL REGION","source":"URA Master Plan 2019 Subzone Boundary (No Sea), via data.gov.sg"},"geometry":{"type":"Polygon","coordinates":[[[103.84781,1.27551],[103.84796,1.27577],[103.84802,1.27586],[103.84815,1.27603],[103.84799,1.27612],[103.84792,1.27616],[103.84789,1.27619],[103.8477,1.27631],[103.84762,1.27637],[103.84762,1.27637],[103.84761,1.27637],[103.84758,1.2764],[103.84755,1.27642],[103.84744,1.27651],[103.84741,1.27655],[103.8474,1.27655],[103.84695,1.27702],[103.84693,1.27705],[103.8466,1.27744],[103.84654,1.27751],[103.84634,1.27772],[103.84621,1.27787],[103.8462,1.27787],[103.84595,1.27819],[103.84593,1.27822],[103.84588,1.27827],[103.84572,1.27848],[103.84568,1.27852],[103.84565,1.27857],[103.84559,1.27864],[103.84552,1.27872],[103.84543,1.27884],[103.84537,1.27891],[103.84519,1.27916],[103.84518,1.27912],[103.84512,1.27877],[103.84508,1.27854],[103.845,1.27811],[103.84499,1.27805],[103.84492,1.27764],[103.84478,1.27698],[103.8447,1.27656],[103.84462,1.27613],[103.84457,1.27583],[103.84453,1.27561],[103.84452,1.27553],[103.84452,1.27551],[103.84447,1.27552],[103.8444,1.27553],[103.84436,1.27553],[103.84415,1.27557],[103.84396,1.27559],[103.84394,1.2755],[103.84393,1.27545],[103.84388,1.2752],[103.84386,1.27507],[103.84383,1.27494],[103.84383,1.27491],[103.84383,1.27489],[103.84382,1.27488],[103.84396,1.27488],[103.844,1.27488],[103.84403,1.27488],[103.84411,1.27487],[103.84405,1.27448],[103.84405,1.27446],[103.84404,1.27439],[103.84402,1.27432],[103.84401,1.27421],[103.844,1.27419],[103.84412,1.2742],[103.84428,1.27422],[103.84435,1.27423],[103.84458,1.27426],[103.84477,1.27428],[103.84485,1.27428],[103.84509,1.27431],[103.84528,1.27413],[103.84532,1.2741],[103.84533,1.27408],[103.84545,1.27397],[103.84558,1.27386],[103.84574,1.27371],[103.84589,1.27359],[103.84599,1.27351],[103.8461,1.27342],[103.84613,1.27339],[103.84614,1.27339],[103.84625,1.27351],[103.84662,1.27396],[103.84679,1.27416],[103.84697,1.27437],[103.8472,1.27465],[103.84735,1.27483],[103.84755,1.2751],[103.84781,1.27551]]]}},{"type":"Feature","properties":{"cluster":"punggol","clusterLabel":"Punggol Digital District","subzone":"PUNGGOL CANAL","planningArea":"PUNGGOL","region":"NORTH-EAST REGION","source":"URA Master Plan 2019 Subzone Boundary (No Sea), via data.gov.sg"},"geometry":{"type":"Polygon","coordinates":[[[103.91458,1.41618],[103.9142,1.41612],[103.91398,1.41609],[103.91358,1.41604],[103.91321,1.41602],[103.91271,1.41602],[103.91189,1.41608],[103.91159,1.41611],[103.91138,1.4136],[103.91131,1.41322],[103.91099,1.41194],[103.91091,1.41174],[103.91072,1.41131],[103.91038,1.41059],[103.90974,1.4095],[103.90978,1.40948],[103.9099,1.4094],[103.91033,1.40908],[103.91283,1.40709],[103.91567,1.40485],[103.9202,1.40149],[103.92173,1.40017],[103.92424,1.39794],[103.92441,1.39805],[103.92444,1.39806],[103.92458,1.39814],[103.92495,1.39833],[103.92704,1.3993],[103.92846,1.3999],[103.92903,1.40013],[103.92507,1.40305],[103.92297,1.40434],[103.92161,1.40537],[103.91941,1.40706],[103.9185,1.40785],[103.91774,1.40866],[103.91701,1.40972],[103.91609,1.4113],[103.91541,1.41277],[103.91481,1.41496],[103.91458,1.41618]]]}},{"type":"Feature","properties":{"cluster":"novena","clusterLabel":"Novena health city","subzone":"MOULMEIN","planningArea":"NOVENA","region":"CENTRAL REGION","source":"URA Master Plan 2019 Subzone Boundary (No Sea), via data.gov.sg"},"geometry":{"type":"Polygon","coordinates":[[[103.84852,1.32204],[103.84836,1.32208],[103.84814,1.32218],[103.84799,1.32224],[103.84782,1.32233],[103.84714,1.32275],[103.84693,1.3229],[103.84685,1.32294],[103.84574,1.32337],[103.84549,1.32277],[103.84534,1.32247],[103.84516,1.32218],[103.84476,1.32174],[103.84446,1.32149],[103.84418,1.32135],[103.84341,1.32107],[103.84271,1.32083],[103.84235,1.32067],[103.84234,1.32068],[103.84216,1.3209],[103.84198,1.32122],[103.84186,1.32147],[103.84176,1.32174],[103.84169,1.32194],[103.84167,1.32217],[103.84073,1.32219],[103.83956,1.32234],[103.83947,1.32238],[103.83925,1.32249],[103.83915,1.32257],[103.83887,1.32243],[103.8387,1.32234],[103.83855,1.32227],[103.83849,1.32226],[103.8383,1.32224],[103.83817,1.32225],[103.83802,1.3223],[103.83776,1.32236],[103.83765,1.32238],[103.8375,1.32239],[103.83716,1.32237],[103.83707,1.32232],[103.83702,1.32225],[103.83699,1.32215],[103.83691,1.32201],[103.83701,1.32108],[103.83699,1.3208],[103.83697,1.32047],[103.83701,1.32019],[103.83715,1.31989],[103.83718,1.31978],[103.83723,1.31951],[103.83721,1.31931],[103.83719,1.3192],[103.83716,1.31906],[103.83713,1.31892],[103.83708,1.31882],[103.83703,1.31874],[103.8369,1.31851],[103.8367,1.31819],[103.83662,1.31811],[103.83654,1.31807],[103.83651,1.31806],[103.83645,1.31804],[103.8363,1.31799],[103.83621,1.31796],[103.83611,1.3179],[103.836,1.3178],[103.83587,1.31767],[103.83547,1.31732],[103.83542,1.31728],[103.83542,1.31728],[103.83678,1.31576],[103.83747,1.31499],[103.83753,1.31492],[103.83777,1.31466],[103.83781,1.31461],[103.83791,1.3145],[103.83796,1.31445],[103.83825,1.31412],[103.83849,1.31386],[103.83849,1.31386],[103.83864,1.31361],[103.83867,1.31357],[103.83868,1.31355],[103.8387,1.31353],[103.83908,1.31311],[103.83912,1.31307],[103.83931,1.31291],[103.83953,1.31274],[103.83975,1.31258],[103.84005,1.31238],[103.84082,1.31206],[103.84173,1.31169],[103.8418,1.31166],[103.84184,1.31164],[103.84217,1.31148],[103.84218,1.31148],[103.84218,1.31148],[103.84227,1.31143],[103.84299,1.31109],[103.84316,1.311],[103.84351,1.31086],[103.84358,1.31084],[103.84385,1.31072],[103.84432,1.31056],[103.84433,1.31056],[103.84437,1.31062],[103.84464,1.31164],[103.84507,1.31306],[103.8453,1.31367],[103.84541,1.31399],[103.84541,1.31399],[103.84555,1.31435],[103.84578,1.31477],[103.84634,1.31549],[103.84671,1.3159],[103.84715,1.31629],[103.84759,1.31663],[103.84786,1.31682],[103.84807,1.31694],[103.8483,1.31708],[103.84855,1.3172],[103.84888,1.31736],[103.84928,1.31753],[103.8495,1.31762],[103.84973,1.31773],[103.84989,1.31781],[103.85009,1.3179],[103.85019,1.31795],[103.85053,1.3181],[103.85079,1.31821],[103.85112,1.31839],[103.85135,1.31849],[103.85107,1.31936],[103.85079,1.31939],[103.84982,1.31922],[103.84981,1.31922],[103.84927,1.32204],[103.84873,1.32201],[103.84852,1.32204]]]}},{"type":"Feature","properties":{"cluster":"outram","clusterLabel":"Outram health city","subzone":"SINGAPORE GENERAL HOSPITAL","planningArea":"BUKIT MERAH","region":"CENTRAL REGION","source":"URA Master Plan 2019 Subzone Boundary (No Sea), via data.gov.sg"},"geometry":{"type":"Polygon","coordinates":[[[103.83491,1.27612],[103.83528,1.27625],[103.83647,1.27732],[103.83661,1.27745],[103.83748,1.27794],[103.83904,1.27904],[103.83931,1.27933],[103.83952,1.27957],[103.8396,1.27976],[103.8396,1.27977],[103.83961,1.27981],[103.83924,1.28079],[103.83897,1.28115],[103.83859,1.28147],[103.83821,1.2817],[103.83814,1.28174],[103.83811,1.28177],[103.83794,1.28187],[103.83769,1.28203],[103.83738,1.28222],[103.83713,1.28238],[103.83696,1.28248],[103.83676,1.28261],[103.83641,1.28287],[103.83597,1.28329],[103.83597,1.28329],[103.83596,1.28329],[103.83518,1.28294],[103.83384,1.28246],[103.83235,1.28186],[103.83192,1.28164],[103.83153,1.2814],[103.83124,1.28122],[103.83069,1.2808],[103.83027,1.28046],[103.82998,1.28019],[103.82927,1.27944],[103.82903,1.27907],[103.82938,1.27885],[103.82956,1.27872],[103.82967,1.27865],[103.83073,1.27818],[103.83101,1.27808],[103.83146,1.2779],[103.83327,1.27698],[103.83402,1.27621],[103.83454,1.27612],[103.83491,1.27612]]]}},{"type":"Feature","properties":{"cluster":"jid","clusterLabel":"Jurong Innovation District","subzone":"MURAI","planningArea":"WESTERN WATER CATCHMENT","region":"WEST REGION","source":"URA Master Plan 2019 Subzone Boundary (No Sea), via data.gov.sg"},"geometry":{"type":"MultiPolygon","coordinates":[[[[103.68527,1.43353],[103.68534,1.43359],[103.6854,1.43381],[103.68545,1.43392],[103.68547,1.43409],[103.68547,1.43437],[103.6855,1.43442],[103.68565,1.43454],[103.68571,1.4347],[103.68565,1.4349],[103.6856,1.43497],[103.68548,1.43504],[103.6854,1.43506],[103.68532,1.43505],[103.68521,1.43498],[103.685,1.43476],[103.6848,1.43467],[103.68466,1.43457],[103.68445,1.4345],[103.68435,1.43442],[103.68425,1.43422],[103.68425,1.43413],[103.68432,1.43409],[103.68478,1.43379],[103.68499,1.43373],[103.68513,1.43355],[103.68521,1.43351],[103.68527,1.43353]]],[[[103.66113,1.39681],[103.66124,1.39692],[103.6613,1.39703],[103.66137,1.39707],[103.66151,1.39709],[103.66165,1.39717],[103.66188,1.39741],[103.66191,1.39793],[103.66165,1.39873],[103.66152,1.39905],[103.66133,1.39922],[103.66125,1.39924],[103.66091,1.39901],[103.66081,1.39885],[103.6608,1.39875],[103.66091,1.39865],[103.66099,1.39863],[103.66103,1.39857],[103.66083,1.39821],[103.66073,1.3981],[103.66068,1.39785],[103.6606,1.39775],[103.66059,1.39746],[103.66055,1.39735],[103.66049,1.3973],[103.66042,1.39719],[103.66029,1.39708],[103.66047,1.39703],[103.66067,1.39691],[103.661,1.39677],[103.66113,1.39681]]],[[[103.69302,1.43367],[103.69301,1.43367],[103.69299,1.43367],[103.69295,1.43365],[103.69289,1.43362],[103.69282,1.43355],[103.69276,1.43351],[103.69273,1.43349],[103.6927,1.43348],[103.69265,1.43348],[103.69258,1.43347],[103.69245,1.43346],[103.69228,1.43345],[103.69204,1.43344],[103.692,1.43344],[103.69196,1.43344],[103.69192,1.43343],[103.69189,1.43343],[103.69187,1.43344],[103.69185,1.43345],[103.69182,1.43346],[103.6918,1.43347],[103.69178,1.43348],[103.69172,1.43352],[103.69171,1.43353],[103.69168,1.43353],[103.69163,1.43353],[103.69159,1.43353],[103.69154,1.43352],[103.6915,1.43352],[103.69147,1.43351],[103.69141,1.43351],[103.69135,1.4335],[103.6913,1.4335],[103.69123,1.4335],[103.6912,1.43349],[103.69115,1.43349],[103.69112,1.43348],[103.69109,1.43348],[103.69105,1.43346],[103.69101,1.43346],[103.69097,1.43345],[103.69092,1.43344],[103.6909,1.43343],[103.69088,1.43343],[103.69085,1.43341],[103.69083,1.43339],[103.69081,1.43338],[103.69079,1.43335],[103.69077,1.43334],[103.69076,1.43332],[103.69074,1.43328],[103.69073,1.43327],[103.69072,1.43324],[103.69071,1.43321],[103.6907,1.43318],[103.69068,1.43316],[103.69067,1.43313],[103.69064,1.4331],[103.69062,1.43309],[103.69061,1.43308],[103.69059,1.43307],[103.69055,1.43306],[103.69052,1.43306],[103.69049,1.43306],[103.69045,1.43306],[103.69041,1.43308],[103.69036,1.43309],[103.69032,1.4331],[103.69022,1.4331],[103.69015,1.4331],[103.69011,1.43311],[103.69002,1.43315],[103.68997,1.43319],[103.68994,1.43322],[103.68989,1.43327],[103.68985,1.43331],[103.6898,1.43333],[103.68974,1.43334],[103.68969,1.43335],[103.68965,1.43335],[103.68962,1.43334],[103.68958,1.4333],[103.68957,1.43326],[103.68956,1.43319],[103.68948,1.43311],[103.68943,1.43302],[103.68923,1.43291],[103.68894,1.4329],[103.68865,1.43299],[103.68863,1.43305],[103.6886,1.43304],[103.6886,1.433],[103.68853,1.43292],[103.68846,1.43276],[103.68845,1.43264],[103.68848,1.43259],[103.68794,1.43206],[103.68778,1.43171],[103.68773,1.43183],[103.68766,1.43195],[103.68758,1.432],[103.68754,1.432],[103.68749,1.43196],[103.68742,1.43196],[103.68738,1.43199],[103.68735,1.432],[103.68727,1.432],[103.68685,1.43193],[103.68652,1.43196],[103.6864,1.43193],[103.68631,1.4319],[103.68625,1.43185],[103.68623,1.4317],[103.6862,1.43166],[103.68608,1.43162],[103.68588,1.43153],[103.68582,1.43146],[103.68578,1.43142],[103.68577,1.43139],[103.68575,1.43127],[103.68575,1.43112],[103.68578,1.43102],[103.6858,1.4309],[103.68584,1.43074],[103.68588,1.43061],[103.68593,1.43041],[103.68594,1.43031],[103.68594,1.43024],[103.68593,1.43017],[103.68592,1.43011],[103.68589,1.43005],[103.68586,1.43],[103.68583,1.42997],[103.68581,1.42998],[103.68579,1.42999],[103.68578,1.43001],[103.68578,1.43003],[103.68578,1.43017],[103.68569,1.43029],[103.68552,1.43041],[103.68539,1.43045],[103.68473,1.43045],[103.68436,1.43051],[103.68366,1.43097],[103.68349,1.43098],[103.68339,1.43105],[103.68334,1.43117],[103.68331,1.43117],[103.68314,1.43112],[103.68307,1.43106],[103.68303,1.43098],[103.6831,1.43087],[103.68305,1.43072],[103.68295,1.43052],[103.68267,1.43032],[103.68259,1.4302],[103.68251,1.43025],[103.68242,1.4302],[103.68219,1.42987],[103.6817,1.42944],[103.68145,1.4292],[103.6814,1.42914],[103.68113,1.42905],[103.68088,1.42905],[103.68066,1.42888],[103.68022,1.42874],[103.67996,1.4287],[103.67973,1.42868],[103.67966,1.42866],[103.67966,1.42865],[103.67956,1.42861],[103.67915,1.42853],[103.679,1.42853],[103.67895,1.42865],[103.67895,1.42866],[103.67888,1.42882],[103.6788,1.42888],[103.67871,1.4289],[103.67828,1.42907],[103.67827,1.4291],[103.67816,1.42914],[103.67806,1.42912],[103.67799,1.42908],[103.67792,1.42898],[103.6778,1.42887],[103.67771,1.42874],[103.67767,1.42872],[103.67764,1.42865],[103.67761,1.42857],[103.67761,1.42848],[103.6774,1.42816],[103.67689,1.42777],[103.67684,1.42747],[103.67687,1.42733],[103.67667,1.427],[103.67656,1.4269],[103.67652,1.42675],[103.67655,1.42662],[103.67643,1.42636],[103.6764,1.42631],[103.6765,1.42629],[103.67651,1.42628],[103.67655,1.42626],[103.67659,1.42625],[103.67662,1.42623],[103.67668,1.42622],[103.67676,1.4262],[103.67683,1.42619],[103.67688,1.42616],[103.67691,1.42612],[103.67691,1.42609],[103.67689,1.42607],[103.67683,1.42607],[103.67675,1.42608],[103.67666,1.4261],[103.67653,1.42613],[103.67639,1.42617],[103.67625,1.42622],[103.67614,1.42624],[103.67606,1.42625],[103.67599,1.42625],[103.67593,1.42623],[103.67581,1.42619],[103.67569,1.42612],[103.67565,1.42609],[103.67555,1.42603],[103.67551,1.426],[103.67539,1.4259],[103.67523,1.42578],[103.67513,1.42571],[103.67505,1.42567],[103.6749,1.4256],[103.67486,1.42556],[103.6748,1.42554],[103.67472,1.4255],[103.67466,1.42545],[103.67461,1.42542],[103.67458,1.42539],[103.67454,1.42538],[103.67448,1.42535],[103.67445,1.42533],[103.67442,1.42529],[103.67438,1.42524],[103.67433,1.4252],[103.6743,1.42518],[103.67425,1.42508],[103.67423,1.42504],[103.67423,1.42498],[103.67423,1.42498],[103.67421,1.42492],[103.67402,1.42425],[103.67406,1.42405],[103.6739,1.42351],[103.67398,1.42328],[103.67399,1.42323],[103.67397,1.42321],[103.67396,1.42312],[103.67392,1.42295],[103.67384,1.42284],[103.67373,1.4227],[103.67365,1.4226],[103.67357,1.42243],[103.67353,1.42227],[103.67352,1.42212],[103.67351,1.42201],[103.67355,1.42168],[103.67356,1.4216],[103.67363,1.42128],[103.67367,1.42119],[103.67374,1.42105],[103.67384,1.4209],[103.67391,1.42081],[103.67401,1.42069],[103.67409,1.42058],[103.67414,1.42052],[103.67418,1.42049],[103.67428,1.42045],[103.67433,1.42045],[103.6744,1.42044],[103.67445,1.42043],[103.67449,1.42043],[103.67455,1.42045],[103.67461,1.42046],[103.67466,1.42051],[103.67473,1.42058],[103.6748,1.42065],[103.67487,1.4207],[103.67493,1.42071],[103.67493,1.42068],[103.67493,1.42064],[103.67491,1.4206],[103.67479,1.42046],[103.67464,1.42032],[103.67457,1.42027],[103.67446,1.42018],[103.67438,1.42011],[103.67437,1.41999],[103.67441,1.41991],[103.67448,1.41981],[103.67454,1.41972],[103.67461,1.41963],[103.67467,1.41955],[103.67471,1.41951],[103.67476,1.41944],[103.67481,1.41933],[103.67483,1.41925],[103.67477,1.41918],[103.67466,1.41929],[103.67463,1.41935],[103.67457,1.41944],[103.67447,1.41959],[103.6744,1.41969],[103.67432,1.41972],[103.67416,1.41977],[103.67415,1.41981],[103.67416,1.41984],[103.67417,1.41989],[103.67416,1.41998],[103.67414,1.42003],[103.67413,1.42005],[103.67409,1.42008],[103.67406,1.4201],[103.67401,1.42013],[103.67393,1.42014],[103.67379,1.42014],[103.67365,1.42011],[103.67351,1.42003],[103.67341,1.41998],[103.67336,1.41996],[103.67332,1.41993],[103.6733,1.4199],[103.67327,1.41987],[103.67319,1.4198],[103.67315,1.41975],[103.67311,1.41971],[103.67272,1.41938],[103.67263,1.41936],[103.67257,1.41937],[103.67243,1.41933],[103.67227,1.41924],[103.67223,1.41915],[103.67222,1.41906],[103.67226,1.41899],[103.67245,1.41885],[103.67247,1.4188],[103.67254,1.41878],[103.67265,1.41877],[103.67286,1.4187],[103.67309,1.41853],[103.67311,1.41847],[103.67311,1.41835],[103.67307,1.4182],[103.67306,1.41799],[103.67302,1.4179],[103.67302,1.41781],[103.67302,1.41777],[103.67294,1.4177],[103.67262,1.41777],[103.67261,1.41781],[103.67259,1.41784],[103.6725,1.41788],[103.67246,1.41793],[103.67222,1.41802],[103.67216,1.41801],[103.672,1.41781],[103.67196,1.41776],[103.67195,1.41771],[103.67195,1.41767],[103.67196,1.41763],[103.67198,1.41759],[103.67201,1.41755],[103.67205,1.41751],[103.67206,1.41747],[103.67205,1.41744],[103.67204,1.4174],[103.67198,1.41732],[103.67192,1.4172],[103.67187,1.41709],[103.67183,1.41695],[103.6718,1.41685],[103.67169,1.41647],[103.67163,1.41629],[103.67155,1.41605],[103.67153,1.41593],[103.67151,1.41582],[103.6715,1.41571],[103.6715,1.41558],[103.67151,1.41551],[103.67151,1.41543],[103.67154,1.4153],[103.67157,1.41517],[103.67162,1.41504],[103.67165,1.41494],[103.67167,1.41488],[103.67174,1.41475],[103.6718,1.41462],[103.67188,1.41451],[103.67196,1.4144],[103.67203,1.41434],[103.6721,1.41429],[103.67218,1.41424],[103.67223,1.41421],[103.67223,1.41414],[103.67225,1.4141],[103.6723,1.41406],[103.67239,1.41404],[103.67258,1.41401],[103.67263,1.41399],[103.67267,1.41393],[103.67268,1.41387],[103.67271,1.41379],[103.67262,1.41368],[103.67241,1.41355],[103.67212,1.41349],[103.67181,1.41363],[103.67119,1.4137],[103.67058,1.41328],[103.67031,1.41289],[103.67038,1.41237],[103.67041,1.41216],[103.67042,1.41207],[103.67057,1.41192],[103.67061,1.41184],[103.67062,1.41179],[103.67063,1.41177],[103.67062,1.41174],[103.6706,1.4117],[103.67055,1.41167],[103.67048,1.41163],[103.67041,1.41159],[103.67034,1.41154],[103.67022,1.41146],[103.67013,1.41139],[103.67006,1.41132],[103.67003,1.41128],[103.67001,1.41123],[103.66995,1.41117],[103.66992,1.41113],[103.6699,1.4111],[103.66983,1.41102],[103.66976,1.4109],[103.66974,1.41084],[103.66971,1.41076],[103.66969,1.41067],[103.66968,1.41055],[103.66968,1.41049],[103.66967,1.41044],[103.66966,1.41037],[103.66963,1.4103],[103.66961,1.41025],[103.66959,1.41022],[103.6695,1.41014],[103.66944,1.41011],[103.66936,1.41007],[103.66931,1.41005],[103.66924,1.41004],[103.66919,1.41002],[103.66911,1.40998],[103.66904,1.40995],[103.66895,1.40992],[103.66887,1.40989],[103.66878,1.40986],[103.66868,1.40982],[103.66859,1.40977],[103.66851,1.40972],[103.66845,1.40968],[103.66842,1.40965],[103.66837,1.40962],[103.66831,1.40956],[103.66829,1.40953],[103.66827,1.40948],[103.66825,1.40942],[103.66814,1.40922],[103.66808,1.40909],[103.66805,1.40903],[103.66803,1.40898],[103.66804,1.40893],[103.66805,1.40874],[103.66797,1.40882],[103.66791,1.40885],[103.66784,1.40889],[103.66776,1.4089],[103.6677,1.4089],[103.66763,1.4089],[103.66758,1.40891],[103.6675,1.40893],[103.66742,1.40896],[103.66736,1.40899],[103.66729,1.40903],[103.6672,1.40908],[103.66715,1.40912],[103.66711,1.40918],[103.66709,1.40921],[103.66706,1.40923],[103.66703,1.40925],[103.66698,1.4093],[103.66696,1.40932],[103.66693,1.40933],[103.6669,1.40935],[103.66687,1.40935],[103.66682,1.40933],[103.66676,1.4093],[103.66652,1.40928],[103.66642,1.40922],[103.66587,1.40908],[103.6656,1.4091],[103.66543,1.40907],[103.66528,1.40899],[103.66514,1.40892],[103.66503,1.40851],[103.66503,1.40851],[103.66506,1.40827],[103.66498,1.40814],[103.66508,1.40775],[103.66499,1.40758],[103.66496,1.40746],[103.66468,1.40694],[103.66458,1.40676],[103.66438,1.40654],[103.66431,1.40631],[103.66415,1.40619],[103.66319,1.40579],[103.66283,1.40585],[103.66268,1.40578],[103.66249,1.40553],[103.66244,1.40537],[103.6626,1.40481],[103.66261,1.40476],[103.66273,1.4046],[103.66281,1.40448],[103.66284,1.40442],[103.66287,1.40438],[103.66288,1.40435],[103.66289,1.40429],[103.66287,1.40423],[103.66287,1.40423],[103.66285,1.40417],[103.66284,1.40412],[103.66288,1.40394],[103.66292,1.40374],[103.66295,1.40365],[103.66298,1.40355],[103.66302,1.40348],[103.66306,1.40344],[103.66308,1.40342],[103.66307,1.40339],[103.66306,1.40335],[103.66303,1.40332],[103.66302,1.40328],[103.66303,1.40326],[103.66308,1.40322],[103.66319,1.40313],[103.66321,1.40312],[103.66323,1.40304],[103.66325,1.40296],[103.66329,1.40292],[103.66338,1.40286],[103.66339,1.40281],[103.66341,1.40278],[103.66344,1.40274],[103.66344,1.40269],[103.66343,1.40255],[103.66343,1.40244],[103.66344,1.40233],[103.66346,1.40224],[103.66348,1.40216],[103.66358,1.40209],[103.66367,1.40205],[103.66375,1.40201],[103.66381,1.402],[103.66388,1.40198],[103.66388,1.40196],[103.66387,1.40193],[103.66383,1.40191],[103.6638,1.4019],[103.66376,1.4019],[103.66366,1.40193],[103.66362,1.40193],[103.66357,1.40194],[103.66352,1.40194],[103.66348,1.40193],[103.66344,1.40192],[103.66339,1.4019],[103.66336,1.40187],[103.66333,1.40184],[103.6633,1.40181],[103.66327,1.40176],[103.66322,1.4017],[103.66316,1.40165],[103.66309,1.40159],[103.66305,1.40156],[103.66299,1.40149],[103.66297,1.40146],[103.66294,1.40139],[103.66291,1.40132],[103.6629,1.40128],[103.66288,1.40119],[103.66286,1.4011],[103.66286,1.40104],[103.66285,1.40095],[103.66285,1.40091],[103.66283,1.40087],[103.66279,1.4008],[103.66276,1.40076],[103.66273,1.40072],[103.66273,1.40069],[103.66275,1.40066],[103.66279,1.40063],[103.66282,1.4006],[103.66286,1.40057],[103.6629,1.40053],[103.66295,1.40051],[103.663,1.40047],[103.66305,1.4004],[103.66308,1.40039],[103.6631,1.4004],[103.66314,1.40043],[103.66317,1.40043],[103.66322,1.40038],[103.66325,1.40035],[103.66325,1.40032],[103.66322,1.40027],[103.66318,1.40022],[103.66311,1.40015],[103.6631,1.40013],[103.66308,1.40006],[103.66307,1.39999],[103.66301,1.4001],[103.66299,1.40015],[103.66298,1.40017],[103.66292,1.40021],[103.66288,1.40024],[103.66283,1.40027],[103.66278,1.4003],[103.66276,1.40031],[103.66274,1.40031],[103.66272,1.4003],[103.66269,1.40026],[103.66268,1.40022],[103.66268,1.40018],[103.66264,1.40012],[103.66258,1.40005],[103.66254,1.39999],[103.66249,1.3999],[103.66245,1.39979],[103.6624,1.39964],[103.66235,1.39939],[103.66227,1.39923],[103.66217,1.39895],[103.66209,1.39887],[103.66205,1.39873],[103.66239,1.39809],[103.66278,1.39742],[103.66285,1.39731],[103.66285,1.39723],[103.66284,1.39711],[103.66284,1.397],[103.66283,1.39689],[103.66281,1.39673],[103.66278,1.39658],[103.66276,1.39645],[103.66271,1.39628],[103.66265,1.39609],[103.6626,1.39593],[103.66254,1.39571],[103.66251,1.39558],[103.66248,1.39545],[103.66242,1.39526],[103.66239,1.39511],[103.66237,1.39496],[103.66237,1.39486],[103.66237,1.39479],[103.66237,1.39474],[103.66238,1.39468],[103.6624,1.39458],[103.66242,1.39448],[103.66245,1.39438],[103.66249,1.39427],[103.66252,1.39418],[103.66255,1.39406],[103.66258,1.39393],[103.66259,1.39388],[103.66259,1.39385],[103.66263,1.39366],[103.66267,1.39345],[103.6627,1.39325],[103.66272,1.39311],[103.66273,1.393],[103.66275,1.39285],[103.66275,1.39265],[103.66274,1.39252],[103.66271,1.39239],[103.66266,1.39227],[103.66262,1.39216],[103.66258,1.39208],[103.66249,1.39191],[103.66247,1.39185],[103.66243,1.39182],[103.66236,1.39169],[103.66231,1.39161],[103.66226,1.39152],[103.66222,1.39143],[103.66214,1.3913],[103.66207,1.39119],[103.66204,1.39114],[103.66196,1.39105],[103.66186,1.39094],[103.66181,1.39089],[103.66178,1.39085],[103.6617,1.39072],[103.66167,1.39067],[103.66166,1.39066],[103.66163,1.3906],[103.66161,1.39054],[103.66159,1.39044],[103.66156,1.39031],[103.66154,1.39019],[103.66152,1.39007],[103.66149,1.38989],[103.66147,1.38977],[103.66147,1.38971],[103.66147,1.38964],[103.66149,1.38955],[103.66152,1.38943],[103.66155,1.38935],[103.66155,1.38928],[103.66156,1.38922],[103.6616,1.38913],[103.66163,1.38907],[103.66164,1.38904],[103.66164,1.38899],[103.66163,1.38895],[103.66163,1.38892],[103.6616,1.38886],[103.66153,1.38873],[103.66145,1.3886],[103.6614,1.38851],[103.66133,1.38844],[103.6613,1.3884],[103.66125,1.38835],[103.66123,1.38833],[103.66116,1.3883],[103.66109,1.38828],[103.66097,1.38826],[103.66087,1.38824],[103.6608,1.38823],[103.66073,1.38821],[103.66065,1.38818],[103.6606,1.38816],[103.66052,1.38812],[103.66047,1.38808],[103.66042,1.38804],[103.6604,1.38801],[103.66035,1.38792],[103.66031,1.38785],[103.66026,1.38776],[103.66021,1.38767],[103.66015,1.38757],[103.66009,1.38748],[103.66005,1.38743],[103.65999,1.3873],[103.65991,1.3871],[103.65989,1.38707],[103.65986,1.38704],[103.65983,1.38699],[103.65981,1.38692],[103.65981,1.38686],[103.65982,1.3868],[103.65983,1.38675],[103.65985,1.38669],[103.65987,1.38662],[103.65989,1.38654],[103.65992,1.38644],[103.65994,1.38638],[103.65995,1.38634],[103.65998,1.3863],[103.66004,1.38623],[103.66012,1.38617],[103.66014,1.38615],[103.6602,1.38612],[103.66031,1.38611],[103.66037,1.38606],[103.6604,1.38602],[103.66044,1.38599],[103.66044,1.38594],[103.66044,1.38585],[103.66042,1.3858],[103.6604,1.38576],[103.66038,1.38572],[103.66035,1.38567],[103.66033,1.38559],[103.6603,1.38547],[103.66026,1.38535],[103.66023,1.38526],[103.66019,1.38519],[103.66016,1.38512],[103.66012,1.38506],[103.66008,1.38502],[103.66004,1.38498],[103.66002,1.38497],[103.65999,1.38496],[103.65994,1.38499],[103.65991,1.38502],[103.65989,1.38508],[103.65987,1.38514],[103.65986,1.38519],[103.65986,1.38528],[103.65988,1.38532],[103.65988,1.38549],[103.65989,1.38559],[103.65988,1.38568],[103.65988,1.38575],[103.65986,1.38583],[103.65984,1.38588],[103.65981,1.38594],[103.65978,1.38595],[103.65976,1.38596],[103.65973,1.38597],[103.65968,1.38596],[103.65958,1.38593],[103.65942,1.38586],[103.65929,1.38582],[103.65921,1.38579],[103.65914,1.38576],[103.65908,1.38573],[103.65902,1.3857],[103.65896,1.38565],[103.65891,1.38562],[103.65887,1.38559],[103.65883,1.38557],[103.65879,1.38551],[103.65877,1.38548],[103.65874,1.38544],[103.65871,1.38539],[103.65867,1.38531],[103.65862,1.38522],[103.65862,1.3852],[103.6586,1.38517],[103.65858,1.38513],[103.65857,1.38511],[103.65855,1.38507],[103.65853,1.38504],[103.6585,1.38502],[103.65846,1.38502],[103.6584,1.385],[103.65835,1.38499],[103.65829,1.38497],[103.65825,1.38494],[103.65819,1.38493],[103.65816,1.38491],[103.65812,1.38488],[103.65806,1.38484],[103.65802,1.3848],[103.65796,1.38473],[103.6579,1.38466],[103.65787,1.38463],[103.65786,1.38461],[103.65784,1.38457],[103.65779,1.38445],[103.65774,1.38441],[103.65771,1.38437],[103.65767,1.38434],[103.65761,1.3843],[103.65758,1.38428],[103.65755,1.38428],[103.65753,1.38428],[103.65749,1.38426],[103.65746,1.38423],[103.65745,1.38419],[103.65744,1.38412],[103.65744,1.38409],[103.65745,1.38405],[103.65745,1.38398],[103.65746,1.38395],[103.65746,1.3839],[103.65747,1.38387],[103.65753,1.38378],[103.65755,1.38377],[103.65758,1.38373],[103.65761,1.38369],[103.6577,1.38367],[103.65777,1.38363],[103.65783,1.38359],[103.6579,1.38352],[103.65794,1.38347],[103.65799,1.3834],[103.65799,1.38338],[103.65799,1.38335],[103.65787,1.38335],[103.65782,1.38335],[103.65779,1.38335],[103.65774,1.38337],[103.6577,1.3834],[103.65766,1.38343],[103.65762,1.38346],[103.65755,1.3835],[103.65752,1.38352],[103.6575,1.38353],[103.65745,1.38355],[103.65741,1.38357],[103.65736,1.38358],[103.65732,1.38359],[103.65728,1.38361],[103.65724,1.38362],[103.65714,1.38364],[103.65711,1.38364],[103.65706,1.38362],[103.65702,1.38359],[103.65699,1.38356],[103.65698,1.38354],[103.65695,1.3835],[103.65694,1.38344],[103.65694,1.38339],[103.65697,1.38333],[103.65703,1.38322],[103.6571,1.3831],[103.65713,1.38308],[103.6572,1.38303],[103.65723,1.383],[103.65726,1.38296],[103.6573,1.3829],[103.65734,1.38286],[103.65735,1.38283],[103.65735,1.38279],[103.65737,1.38272],[103.65737,1.3827],[103.65722,1.38226],[103.6572,1.38221],[103.65683,1.38146],[103.65676,1.38138],[103.65673,1.38133],[103.65669,1.3813],[103.65664,1.38126],[103.65659,1.38123],[103.65653,1.38118],[103.65649,1.38114],[103.65645,1.3811],[103.65641,1.38101],[103.65635,1.3809],[103.65631,1.38076],[103.6563,1.3807],[103.65629,1.3806],[103.65628,1.38054],[103.65625,1.38044],[103.65621,1.38037],[103.65619,1.38033],[103.65615,1.38029],[103.65607,1.38019],[103.65602,1.38013],[103.65597,1.38008],[103.65592,1.38002],[103.65589,1.37998],[103.65587,1.37994],[103.65585,1.3799],[103.65581,1.37984],[103.65573,1.37974],[103.65568,1.37968],[103.65563,1.37961],[103.6555,1.37935],[103.65544,1.37924],[103.65541,1.37918],[103.65538,1.37911],[103.65531,1.37898],[103.65528,1.37891],[103.6552,1.37879],[103.65513,1.37868],[103.65508,1.37858],[103.655,1.37843],[103.65497,1.37837],[103.65491,1.37822],[103.65487,1.3781],[103.65484,1.378],[103.65482,1.37787],[103.65481,1.37775],[103.65479,1.37759],[103.65478,1.3775],[103.65474,1.37732],[103.65471,1.37718],[103.65467,1.37706],[103.65462,1.37692],[103.65458,1.37683],[103.65451,1.37671],[103.65444,1.3766],[103.65439,1.37651],[103.6543,1.37636],[103.65424,1.37625],[103.65421,1.3762],[103.65416,1.37611],[103.65412,1.37603],[103.65404,1.37591],[103.654,1.37581],[103.65393,1.37561],[103.65389,1.37549],[103.65383,1.37533],[103.65379,1.37524],[103.65378,1.37518],[103.65373,1.37511],[103.65368,1.37505],[103.65365,1.375],[103.65363,1.37494],[103.65361,1.37487],[103.65358,1.37482],[103.65354,1.37476],[103.6535,1.3747],[103.65348,1.37467],[103.65346,1.37466],[103.65343,1.37465],[103.65339,1.37466],[103.65332,1.37467],[103.65326,1.37469],[103.6532,1.37471],[103.65313,1.37472],[103.65302,1.37474],[103.65298,1.37474],[103.65291,1.37475],[103.65289,1.37474],[103.65285,1.37474],[103.65279,1.37472],[103.65276,1.3747],[103.65272,1.37465],[103.6527,1.3746],[103.65271,1.37455],[103.65273,1.37446],[103.65275,1.3744],[103.65279,1.37431],[103.65282,1.37421],[103.65285,1.37413],[103.65287,1.37409],[103.65289,1.37406],[103.65292,1.37402],[103.65293,1.37397],[103.65294,1.37392],[103.65295,1.37388],[103.65294,1.37384],[103.65292,1.37379],[103.6529,1.37375],[103.65287,1.37372],[103.65283,1.37367],[103.65279,1.37363],[103.65274,1.37357],[103.65272,1.37353],[103.6527,1.37349],[103.6527,1.37343],[103.65272,1.37338],[103.65274,1.37334],[103.65275,1.37329],[103.65278,1.37325],[103.65278,1.3732],[103.65278,1.37316],[103.65277,1.37311],[103.65275,1.37307],[103.65271,1.37301],[103.65268,1.37298],[103.65264,1.37296],[103.6526,1.37296],[103.65255,1.37298],[103.6525,1.37303],[103.65245,1.37309],[103.6524,1.37316],[103.65236,1.37322],[103.65235,1.37327],[103.65233,1.37332],[103.65227,1.37347],[103.65221,1.37371],[103.65213,1.3739],[103.6521,1.37399],[103.65208,1.37404],[103.65205,1.37412],[103.652,1.37422],[103.65193,1.37433],[103.65186,1.37441],[103.65184,1.37443],[103.65179,1.37449],[103.65173,1.37455],[103.65169,1.3746],[103.65166,1.37463],[103.65163,1.37465],[103.6516,1.37467],[103.65156,1.37469],[103.65151,1.37471],[103.65148,1.37471],[103.65144,1.37472],[103.6514,1.37471],[103.65135,1.3747],[103.65125,1.37465],[103.65115,1.37458],[103.6511,1.37455],[103.65107,1.37453],[103.65103,1.37451],[103.651,1.37448],[103.65096,1.37443],[103.65093,1.37439],[103.65092,1.37436],[103.65091,1.37432],[103.6509,1.37424],[103.65094,1.37415],[103.65098,1.37404],[103.65106,1.37394],[103.65113,1.37384],[103.65117,1.37377],[103.65117,1.37369],[103.65117,1.37361],[103.65118,1.37353],[103.65117,1.37344],[103.65117,1.3734],[103.65116,1.37334],[103.65109,1.37322],[103.65106,1.37317],[103.65104,1.37316],[103.65101,1.37313],[103.65096,1.37309],[103.65091,1.37305],[103.65087,1.37304],[103.65084,1.37302],[103.6508,1.37301],[103.65076,1.37299],[103.65072,1.373],[103.6506,1.37301],[103.65055,1.373],[103.65052,1.37299],[103.65046,1.37297],[103.65039,1.37295],[103.65035,1.37294],[103.65032,1.37294],[103.65027,1.37294],[103.65023,1.37294],[103.65017,1.37292],[103.65012,1.37291],[103.65006,1.37291],[103.65001,1.37291],[103.64996,1.3729],[103.64991,1.37289],[103.64981,1.37287],[103.64974,1.37286],[103.64968,1.37285],[103.64961,1.37284],[103.64955,1.37282],[103.64952,1.37281],[103.6495,1.37279],[103.64948,1.37277],[103.64945,1.37272],[103.64942,1.37269],[103.64938,1.37266],[103.64935,1.37264],[103.64933,1.37259],[103.64933,1.37256],[103.64931,1.37252],[103.64929,1.37249],[103.64923,1.37242],[103.6492,1.37235],[103.64917,1.3723],[103.64914,1.37225],[103.64914,1.3722],[103.64914,1.37216],[103.64914,1.3721],[103.64916,1.37205],[103.64921,1.37197],[103.64924,1.37193],[103.64929,1.37187],[103.64934,1.37183],[103.64937,1.37179],[103.64938,1.37176],[103.64937,1.3717],[103.64934,1.37159],[103.64926,1.37139],[103.6492,1.37124],[103.64914,1.37109],[103.64908,1.37096],[103.64905,1.37089],[103.64897,1.37071],[103.64887,1.37054],[103.6487,1.37025],[103.64864,1.37015],[103.64854,1.37],[103.64843,1.36983],[103.64832,1.36969],[103.64824,1.36959],[103.64817,1.3695],[103.64809,1.36941],[103.64801,1.36932],[103.64794,1.36924],[103.6479,1.3692],[103.64783,1.36914],[103.64781,1.36911],[103.64774,1.36904],[103.64768,1.36898],[103.64762,1.3689],[103.64758,1.36883],[103.64755,1.36877],[103.64753,1.36873],[103.64751,1.36868],[103.6475,1.36866],[103.64747,1.36859],[103.64744,1.36851],[103.64742,1.36847],[103.6474,1.36841],[103.64738,1.36836],[103.64733,1.36828],[103.64729,1.36822],[103.64722,1.36814],[103.64718,1.36811],[103.64712,1.36804],[103.64705,1.36796],[103.64702,1.36791],[103.64693,1.36781],[103.64687,1.36773],[103.64683,1.36767],[103.6468,1.36761],[103.64674,1.3675],[103.64671,1.36742],[103.64668,1.36733],[103.64665,1.36722],[103.64664,1.36718],[103.64663,1.36708],[103.64662,1.36699],[103.64661,1.36687],[103.6466,1.36677],[103.64658,1.36668],[103.64653,1.36654],[103.64651,1.36646],[103.64649,1.3664],[103.64645,1.3663],[103.64641,1.36623],[103.64638,1.36618],[103.64636,1.3661],[103.64629,1.36597],[103.64625,1.36589],[103.64619,1.36579],[103.64617,1.36575],[103.64613,1.36569],[103.64607,1.36561],[103.64599,1.36548],[103.64591,1.36536],[103.64586,1.36526],[103.64581,1.36517],[103.64578,1.3651],[103.64576,1.36506],[103.64572,1.365],[103.64567,1.36491],[103.64562,1.36479],[103.64559,1.36474],[103.64555,1.36465],[103.64555,1.36461],[103.64551,1.36452],[103.64549,1.36445],[103.64546,1.36434],[103.64545,1.36427],[103.64544,1.36419],[103.64543,1.36415],[103.64541,1.36405],[103.64539,1.36394],[103.64536,1.36385],[103.64534,1.36377],[103.64533,1.36374],[103.64529,1.36367],[103.64524,1.36359],[103.64519,1.36351],[103.64516,1.36348],[103.6451,1.36341],[103.64505,1.36336],[103.64501,1.36332],[103.64495,1.36326],[103.64492,1.36322],[103.64489,1.36317],[103.64483,1.36312],[103.64478,1.36307],[103.64475,1.36306],[103.64472,1.363],[103.64468,1.36293],[103.64465,1.36284],[103.64462,1.36279],[103.64461,1.36272],[103.64459,1.36264],[103.64457,1.36253],[103.64456,1.36248],[103.64455,1.3624],[103.64452,1.3623],[103.6445,1.36223],[103.64447,1.36216],[103.64445,1.36212],[103.64443,1.36208],[103.64438,1.36201],[103.64434,1.3619],[103.64432,1.36188],[103.6443,1.36185],[103.64429,1.36182],[103.64428,1.36177],[103.64427,1.36174],[103.64425,1.36169],[103.64421,1.36163],[103.6442,1.3616],[103.64414,1.36145],[103.64409,1.36134],[103.64404,1.36124],[103.644,1.36117],[103.64397,1.3611],[103.64393,1.36104],[103.64389,1.36097],[103.64385,1.36089],[103.6438,1.3608],[103.64376,1.36074],[103.64372,1.36067],[103.64366,1.36057],[103.64361,1.3605],[103.64355,1.36042],[103.64348,1.36034],[103.64342,1.36027],[103.64335,1.36019],[103.64329,1.36014],[103.64324,1.36008],[103.64322,1.36004],[103.64318,1.35997],[103.64307,1.35984],[103.643,1.35974],[103.64294,1.35966],[103.64289,1.35959],[103.64282,1.35951],[103.64278,1.35945],[103.64273,1.35937],[103.64268,1.35931],[103.64262,1.35924],[103.64258,1.3592],[103.64255,1.35917],[103.64248,1.35911],[103.64241,1.35906],[103.64237,1.35904],[103.64233,1.359],[103.64227,1.35896],[103.64212,1.35886],[103.64199,1.35877],[103.6419,1.3587],[103.64184,1.35866],[103.64179,1.35863],[103.64171,1.35857],[103.64162,1.35851],[103.64158,1.35848],[103.64149,1.35842],[103.64144,1.35838],[103.64137,1.35833],[103.64128,1.35828],[103.64118,1.35823],[103.64111,1.3582],[103.64105,1.35817],[103.64102,1.35815],[103.64096,1.35811],[103.64091,1.35807],[103.64086,1.35801],[103.64082,1.35798],[103.64078,1.35792],[103.64075,1.35787],[103.64073,1.3578],[103.64073,1.35776],[103.6407,1.35772],[103.64067,1.35767],[103.64061,1.35764],[103.64058,1.35765],[103.64057,1.35769],[103.64057,1.35773],[103.64058,1.35778],[103.64058,1.35781],[103.64059,1.35785],[103.6406,1.35789],[103.64061,1.35794],[103.64061,1.35798],[103.64061,1.358],[103.64059,1.35804],[103.64056,1.35809],[103.64054,1.35812],[103.64051,1.35815],[103.64047,1.35815],[103.64043,1.35814],[103.64039,1.3581],[103.64035,1.358],[103.64033,1.35795],[103.64032,1.35791],[103.6403,1.35787],[103.6403,1.35778],[103.64029,1.35768],[103.64025,1.35759],[103.64023,1.35755],[103.64021,1.35749],[103.64018,1.35743],[103.64017,1.35737],[103.64015,1.35727],[103.64013,1.35717],[103.64012,1.35711],[103.64012,1.35708],[103.64012,1.3569],[103.64013,1.35686],[103.64014,1.35673],[103.64013,1.35665],[103.64014,1.35658],[103.64015,1.35652],[103.64014,1.35644],[103.64015,1.35638],[103.64015,1.3563],[103.64012,1.35624],[103.6401,1.35617],[103.64008,1.3561],[103.64006,1.35604],[103.64001,1.35587],[103.63995,1.35569],[103.63992,1.35561],[103.63988,1.35551],[103.63986,1.35543],[103.63983,1.35532],[103.63981,1.35525],[103.63978,1.35517],[103.63974,1.35507],[103.63972,1.35501],[103.63967,1.35491],[103.63963,1.35483],[103.63959,1.35476],[103.63957,1.3547],[103.63953,1.35462],[103.6395,1.35453],[103.63947,1.35444],[103.63942,1.3543],[103.63938,1.3542],[103.63936,1.35414],[103.6393,1.35403],[103.63924,1.35393],[103.63918,1.35385],[103.63916,1.3538],[103.63913,1.35377],[103.63909,1.35371],[103.63903,1.35364],[103.63899,1.35355],[103.63894,1.35346],[103.63892,1.35343],[103.63889,1.35337],[103.63889,1.35335],[103.63886,1.35329],[103.63884,1.35324],[103.63882,1.35317],[103.63879,1.35311],[103.63879,1.3531],[103.63912,1.35281],[103.63913,1.3528],[103.6392,1.35274],[103.64329,1.34907],[103.64353,1.34884],[103.64401,1.34839],[103.6441,1.34829],[103.64458,1.34804],[103.6449,1.34787],[103.64547,1.34731],[103.64552,1.34727],[103.64578,1.34689],[103.64615,1.34639],[103.64655,1.34586],[103.64662,1.34576],[103.64696,1.34545],[103.64723,1.34531],[103.64778,1.34504],[103.64805,1.34502],[103.64915,1.34494],[103.64988,1.34488],[103.65032,1.34455],[103.65098,1.34403],[103.65171,1.34347],[103.65185,1.34305],[103.65202,1.34255],[103.65208,1.34235],[103.65201,1.34211],[103.65192,1.34182],[103.65181,1.3415],[103.65169,1.34127],[103.65148,1.34086],[103.65139,1.34067],[103.6514,1.34042],[103.65141,1.34002],[103.65142,1.33979],[103.65165,1.33936],[103.65196,1.33876],[103.65205,1.33865],[103.65226,1.33843],[103.65242,1.33825],[103.65268,1.338],[103.65356,1.33721],[103.6541,1.33673],[103.65443,1.33641],[103.65479,1.33615],[103.65481,1.33613],[103.65484,1.3361],[103.65556,1.33551],[103.65556,1.33551],[103.65636,1.33484],[103.65651,1.33472],[103.65658,1.33467],[103.6567,1.33456],[103.65673,1.33454],[103.6568,1.33437],[103.65714,1.33357],[103.65877,1.33288],[103.65896,1.3328],[103.66014,1.3323],[103.66182,1.33158],[103.6624,1.33133],[103.66339,1.33091],[103.66376,1.33075],[103.66475,1.33033],[103.66545,1.33014],[103.66577,1.32972],[103.66671,1.3288],[103.66688,1.32863],[103.66718,1.32833],[103.66772,1.32799],[103.67121,1.32984],[103.67149,1.32995],[103.67183,1.33007],[103.67219,1.33016],[103.67233,1.3302],[103.67233,1.3302],[103.67285,1.33027],[103.67338,1.33035],[103.67339,1.33035],[103.67358,1.33037],[103.67373,1.3304],[103.67386,1.33045],[103.67398,1.3305],[103.67413,1.33057],[103.67439,1.3307],[103.67457,1.3308],[103.6746,1.33081],[103.6748,1.33094],[103.67486,1.33099],[103.67493,1.33105],[103.67512,1.33125],[103.67519,1.33133],[103.67536,1.33158],[103.67541,1.33169],[103.67543,1.33174],[103.67551,1.33191],[103.67566,1.33231],[103.67587,1.33295],[103.67705,1.33672],[103.67722,1.33723],[103.67746,1.33773],[103.67765,1.33808],[103.67792,1.33841],[103.67825,1.33873],[103.6786,1.33898],[103.67903,1.33918],[103.67947,1.33932],[103.67981,1.33939],[103.68017,1.33943],[103.6803,1.33945],[103.68049,1.33948],[103.68092,1.33948],[103.68123,1.33948],[103.68131,1.33948],[103.68134,1.33948],[103.68136,1.33949],[103.6816,1.33952],[103.68188,1.3396],[103.68214,1.33971],[103.68272,1.34001],[103.68427,1.3412],[103.68428,1.34121],[103.685,1.34177],[103.68595,1.34251],[103.68604,1.34258],[103.68684,1.34321],[103.68788,1.34403],[103.68834,1.34437],[103.69031,1.34591],[103.69046,1.34604],[103.69049,1.34607],[103.69037,1.34618],[103.6903,1.34639],[103.69018,1.34659],[103.69013,1.34671],[103.69009,1.34682],[103.69007,1.34686],[103.69003,1.34693],[103.68995,1.34711],[103.68994,1.34714],[103.68978,1.34749],[103.68981,1.34851],[103.68981,1.34867],[103.68981,1.34867],[103.68981,1.34869],[103.68985,1.34995],[103.68986,1.35001],[103.68986,1.35004],[103.68986,1.35027],[103.68989,1.35101],[103.6899,1.35147],[103.68991,1.35152],[103.68991,1.35168],[103.68992,1.35185],[103.68992,1.35202],[103.68993,1.35217],[103.68993,1.35234],[103.68994,1.35252],[103.68994,1.35255],[103.68994,1.35265],[103.68994,1.35271],[103.68995,1.3529],[103.68996,1.35315],[103.68996,1.35327],[103.68996,1.35341],[103.68997,1.35359],[103.68998,1.35375],[103.68998,1.3539],[103.69001,1.35483],[103.69001,1.35483],[103.69001,1.35483],[103.69001,1.35499],[103.69002,1.35525],[103.69003,1.35563],[103.69006,1.35635],[103.69011,1.35673],[103.69026,1.35677],[103.69031,1.35678],[103.69034,1.35678],[103.69038,1.35679],[103.69053,1.35677],[103.69069,1.35674],[103.69084,1.3567],[103.69086,1.35669],[103.69095,1.35691],[103.6912,1.35723],[103.69168,1.35783],[103.69181,1.35783],[103.69193,1.35784],[103.69204,1.35786],[103.69213,1.35787],[103.69225,1.35789],[103.6923,1.3579],[103.69266,1.35802],[103.69289,1.35809],[103.69301,1.35815],[103.69314,1.35822],[103.69326,1.35829],[103.69337,1.35836],[103.69344,1.35841],[103.69386,1.3587],[103.6941,1.35913],[103.69443,1.3593],[103.69465,1.35939],[103.69479,1.35944],[103.69531,1.35965],[103.69546,1.35971],[103.69579,1.35985],[103.69617,1.36001],[103.69658,1.36018],[103.69727,1.36047],[103.69736,1.36051],[103.69755,1.36061],[103.69784,1.36076],[103.69795,1.36084],[103.69796,1.36084],[103.69802,1.36089],[103.69822,1.36103],[103.69836,1.36113],[103.69864,1.36135],[103.69901,1.36164],[103.69905,1.36167],[103.69907,1.36169],[103.69915,1.36175],[103.69922,1.36181],[103.69928,1.36188],[103.69935,1.36195],[103.6994,1.36202],[103.69946,1.3621],[103.69949,1.36215],[103.69952,1.36219],[103.69973,1.36252],[103.6998,1.36262],[103.70037,1.3635],[103.7004,1.36353],[103.70136,1.36454],[103.70146,1.36445],[103.70153,1.36438],[103.70158,1.36443],[103.70164,1.36447],[103.70171,1.36451],[103.70184,1.36457],[103.70192,1.3646],[103.70199,1.36461],[103.70214,1.36463],[103.70221,1.36462],[103.70228,1.36461],[103.70235,1.3646],[103.70242,1.36458],[103.70249,1.36455],[103.70256,1.36452],[103.70262,1.36449],[103.70268,1.36444],[103.70273,1.3644],[103.70328,1.3639],[103.70337,1.36385],[103.70338,1.3638],[103.70346,1.3637],[103.7035,1.36363],[103.70353,1.36356],[103.70356,1.36349],[103.70358,1.36341],[103.7036,1.36334],[103.70361,1.36326],[103.70361,1.36318],[103.70361,1.3631],[103.7039,1.3628],[103.70426,1.36244],[103.70487,1.36307],[103.70574,1.3639],[103.7062,1.36431],[103.70625,1.36435],[103.70719,1.36511],[103.70811,1.36573],[103.70856,1.36605],[103.70866,1.36612],[103.7091,1.36638],[103.70964,1.36667],[103.71028,1.36693],[103.7109,1.36716],[103.71158,1.3674],[103.71312,1.36777],[103.71325,1.3678],[103.71412,1.36796],[103.71456,1.36806],[103.71526,1.36826],[103.72134,1.37014],[103.7221,1.37045],[103.723,1.37084],[103.72401,1.37143],[103.72461,1.37181],[103.72484,1.37196],[103.7256,1.37251],[103.7263,1.37302],[103.7268,1.37343],[103.72735,1.37392],[103.72797,1.37453],[103.72867,1.37528],[103.72985,1.37644],[103.73054,1.37707],[103.73267,1.37893],[103.73373,1.37985],[103.73469,1.38073],[103.73485,1.38087],[103.73523,1.38117],[103.73557,1.38147],[103.73563,1.38152],[103.73567,1.38155],[103.73596,1.38181],[103.73636,1.38214],[103.73651,1.38228],[103.73682,1.38254],[103.7373,1.38295],[103.73771,1.3833],[103.74157,1.38661],[103.74143,1.38692],[103.74088,1.38809],[103.74041,1.38912],[103.74029,1.38949],[103.74022,1.3898],[103.74019,1.39004],[103.74017,1.3902],[103.74016,1.39035],[103.74017,1.39076],[103.7402,1.39108],[103.74024,1.39129],[103.74029,1.39152],[103.74038,1.39181],[103.74047,1.39204],[103.74056,1.39223],[103.74072,1.39253],[103.74125,1.39337],[103.74125,1.39337],[103.74125,1.39337],[103.74153,1.39383],[103.74175,1.39419],[103.74207,1.39471],[103.74233,1.39521],[103.74254,1.39572],[103.74266,1.39611],[103.74272,1.39633],[103.74283,1.39677],[103.74284,1.39678],[103.74289,1.39713],[103.74311,1.39876],[103.74317,1.39938],[103.74339,1.40105],[103.7435,1.40148],[103.74365,1.4021],[103.74391,1.40273],[103.74433,1.4035],[103.74454,1.40382],[103.74492,1.40428],[103.74521,1.40461],[103.74555,1.40497],[103.74602,1.40549],[103.74581,1.40552],[103.74578,1.40553],[103.74575,1.40554],[103.74556,1.40558],[103.74538,1.40564],[103.74514,1.40571],[103.74467,1.40588],[103.74414,1.40608],[103.74369,1.40629],[103.74331,1.40651],[103.7431,1.40669],[103.74289,1.40687],[103.74256,1.40721],[103.74218,1.40772],[103.74188,1.40826],[103.74179,1.4085],[103.74165,1.40897],[103.74157,1.40935],[103.74155,1.40961],[103.74155,1.40999],[103.74156,1.41019],[103.74158,1.4104],[103.74163,1.41066],[103.74169,1.41094],[103.74192,1.412],[103.74193,1.41205],[103.7421,1.41282],[103.74212,1.41298],[103.74214,1.41322],[103.74214,1.41343],[103.74211,1.41385],[103.74209,1.41398],[103.74203,1.41421],[103.74197,1.41442],[103.74167,1.41527],[103.74109,1.41691],[103.74033,1.4192],[103.74004,1.4201],[103.73983,1.42074],[103.73955,1.4216],[103.73955,1.4216],[103.73937,1.42214],[103.73933,1.42228],[103.73921,1.42217],[103.7381,1.42102],[103.73688,1.4198],[103.72874,1.41164],[103.72855,1.41148],[103.72848,1.41143],[103.72834,1.41136],[103.72826,1.41132],[103.72809,1.41125],[103.72789,1.41117],[103.72768,1.41111],[103.72752,1.41109],[103.72735,1.41107],[103.72499,1.41108],[103.72283,1.41107],[103.71856,1.41107],[103.71803,1.41193],[103.718,1.41199],[103.71795,1.41207],[103.71791,1.41213],[103.71782,1.41228],[103.71742,1.41295],[103.71726,1.41318],[103.71719,1.41329],[103.71716,1.41333],[103.71707,1.41344],[103.71704,1.41347],[103.71685,1.41367],[103.7165,1.41399],[103.71625,1.41423],[103.71607,1.41434],[103.71603,1.41436],[103.7159,1.41441],[103.71574,1.41445],[103.71559,1.41446],[103.71537,1.41446],[103.71526,1.41446],[103.71517,1.41445],[103.715,1.41444],[103.71485,1.4144],[103.71468,1.41433],[103.71446,1.41408],[103.7141,1.41366],[103.7139,1.41342],[103.71386,1.4134],[103.71337,1.41301],[103.71322,1.41296],[103.71287,1.41285],[103.7125,1.41282],[103.7123,1.41281],[103.71199,1.41284],[103.71153,1.41293],[103.71129,1.41297],[103.711,1.413],[103.71087,1.413],[103.71076,1.41298],[103.71068,1.41296],[103.71038,1.41281],[103.70984,1.41258],[103.70939,1.41246],[103.70895,1.41239],[103.70863,1.41236],[103.70768,1.41231],[103.70729,1.41229],[103.70708,1.41227],[103.70665,1.4122],[103.70626,1.41216],[103.70603,1.41215],[103.70588,1.41215],[103.70574,1.41216],[103.70564,1.41218],[103.7056,1.41218],[103.70543,1.41222],[103.70532,1.41226],[103.70523,1.41232],[103.70515,1.41238],[103.70385,1.41369],[103.7025,1.41503],[103.70223,1.4153],[103.70214,1.41545],[103.70197,1.41608],[103.70174,1.41639],[103.70112,1.4167],[103.70097,1.41677],[103.70098,1.4168],[103.70132,1.41751],[103.70157,1.41805],[103.70105,1.4183],[103.70052,1.41842],[103.6998,1.41866],[103.69973,1.41868],[103.69921,1.41876],[103.69865,1.41865],[103.69866,1.41869],[103.69889,1.41937],[103.69915,1.42021],[103.69925,1.4205],[103.6994,1.421],[103.69966,1.42183],[103.69977,1.42214],[103.69981,1.42226],[103.69983,1.42235],[103.70009,1.42313],[103.70011,1.42319],[103.69707,1.42424],[103.69701,1.42426],[103.69701,1.42432],[103.69706,1.42504],[103.69709,1.42545],[103.69713,1.42611],[103.69581,1.42771],[103.69578,1.42774],[103.69503,1.43153],[103.69432,1.43243],[103.69339,1.43263],[103.69324,1.43305],[103.69302,1.43367]]]]}},{"type":"Feature","properties":{"cluster":"kent-ridge","clusterLabel":"Kent Ridge","subzone":"NATIONAL UNIVERSITY OF S'PORE","planningArea":"QUEENSTOWN","region":"CENTRAL REGION","source":"URA Master Plan 2019 Subzone Boundary (No Sea), via data.gov.sg"},"geometry":{"type":"Polygon","coordinates":[[[103.78527,1.29326],[103.78569,1.29367],[103.78587,1.29396],[103.78596,1.29422],[103.78597,1.29432],[103.78405,1.29654],[103.78311,1.29738],[103.78285,1.29757],[103.78095,1.29864],[103.78047,1.29892],[103.77919,1.29962],[103.77836,1.30022],[103.77497,1.30219],[103.77197,1.30362],[103.77121,1.30398],[103.77121,1.30391],[103.77117,1.30349],[103.77102,1.30286],[103.77078,1.30226],[103.77061,1.3018],[103.77025,1.30113],[103.77014,1.30095],[103.77001,1.30077],[103.76993,1.30063],[103.76987,1.30042],[103.76982,1.30012],[103.7698,1.29986],[103.76979,1.29956],[103.76978,1.29938],[103.76978,1.29923],[103.76978,1.29904],[103.76978,1.29822],[103.76977,1.29807],[103.76976,1.29799],[103.76972,1.29784],[103.76968,1.29774],[103.76967,1.29767],[103.76965,1.29753],[103.76964,1.29733],[103.76961,1.29693],[103.76962,1.29681],[103.76962,1.29672],[103.76963,1.29663],[103.76962,1.29652],[103.76961,1.29641],[103.76958,1.2962],[103.76958,1.29612],[103.76959,1.29602],[103.76962,1.29581],[103.76962,1.29576],[103.76962,1.29569],[103.76963,1.2956],[103.76963,1.2955],[103.76962,1.29542],[103.7696,1.2953],[103.76959,1.29521],[103.76958,1.29521],[103.76958,1.2952],[103.76955,1.29504],[103.7695,1.29485],[103.76949,1.29479],[103.76947,1.29472],[103.76945,1.29463],[103.76942,1.29455],[103.76937,1.29444],[103.76937,1.29443],[103.76937,1.29443],[103.76935,1.29438],[103.76932,1.29431],[103.76928,1.29422],[103.76927,1.29421],[103.76922,1.2941],[103.76916,1.29398],[103.7691,1.29387],[103.76899,1.29372],[103.76912,1.29359],[103.76914,1.29357],[103.76968,1.29309],[103.76975,1.29301],[103.76992,1.29281],[103.76999,1.29274],[103.77007,1.29265],[103.77015,1.29263],[103.77041,1.29257],[103.77039,1.29249],[103.77036,1.2924],[103.77066,1.2924],[103.77087,1.2924],[103.77098,1.29241],[103.77105,1.29241],[103.77115,1.29241],[103.77119,1.29241],[103.77121,1.29241],[103.77127,1.29241],[103.77133,1.29241],[103.77139,1.29241],[103.77145,1.29241],[103.7715,1.29241],[103.77156,1.29241],[103.77161,1.29241],[103.77162,1.29241],[103.77168,1.29241],[103.77174,1.29241],[103.77189,1.29241],[103.77197,1.29241],[103.77202,1.29241],[103.77208,1.29241],[103.77216,1.29241],[103.77248,1.29241],[103.77279,1.29241],[103.77315,1.29235],[103.7735,1.29229],[103.77345,1.29212],[103.77338,1.29192],[103.77336,1.29185],[103.77336,1.29185],[103.77369,1.29169],[103.77371,1.29168],[103.7738,1.29164],[103.77381,1.29163],[103.77408,1.2915],[103.77414,1.29147],[103.77416,1.29146],[103.77452,1.2913],[103.77465,1.29124],[103.77477,1.29119],[103.7749,1.29114],[103.77503,1.29108],[103.77515,1.29103],[103.77517,1.29102],[103.77528,1.291],[103.77541,1.29097],[103.77573,1.29084],[103.77607,1.29078],[103.77622,1.29075],[103.77624,1.29075],[103.77645,1.29071],[103.77668,1.29066],[103.77669,1.29066],[103.77691,1.29055],[103.77696,1.29052],[103.7772,1.29039],[103.77733,1.29033],[103.7775,1.29026],[103.77762,1.29021],[103.77775,1.29016],[103.77796,1.29009],[103.77825,1.28999],[103.77844,1.29037],[103.77867,1.29055],[103.77871,1.29058],[103.77886,1.2907],[103.77897,1.29081],[103.77908,1.29091],[103.77924,1.29106],[103.77998,1.29002],[103.78009,1.28973],[103.78009,1.28973],[103.78012,1.28965],[103.78012,1.28965],[103.78015,1.28967],[103.78024,1.2897],[103.78029,1.28972],[103.78048,1.28978],[103.78074,1.28981],[103.78146,1.28984],[103.78155,1.28985],[103.78163,1.28986],[103.78177,1.2899],[103.78202,1.29],[103.78235,1.2902],[103.78334,1.29132],[103.78359,1.29158],[103.7842,1.29212],[103.78527,1.29326]]]}},{"type":"Feature","properties":{"cluster":"civic-dist","clusterLabel":"Civic & Marina district","subzone":"CITY HALL","planningArea":"DOWNTOWN CORE","region":"CENTRAL REGION","source":"URA Master Plan 2019 Subzone Boundary (No Sea), via data.gov.sg"},"geometry":{"type":"Polygon","coordinates":[[[103.85732,1.29543],[103.85739,1.29552],[103.858,1.29631],[103.85836,1.29671],[103.85865,1.29701],[103.85894,1.29731],[103.85894,1.29731],[103.85915,1.29754],[103.8597,1.29805],[103.86035,1.29858],[103.86014,1.29886],[103.86002,1.29901],[103.85978,1.29934],[103.85954,1.29966],[103.85942,1.29978],[103.85925,1.29963],[103.85913,1.29951],[103.85906,1.29944],[103.85891,1.29928],[103.85868,1.29906],[103.85845,1.29883],[103.85831,1.29869],[103.8582,1.29858],[103.85813,1.29851],[103.85791,1.29827],[103.8578,1.29816],[103.85764,1.29801],[103.85746,1.29785],[103.85738,1.29777],[103.85737,1.29776],[103.85723,1.29764],[103.8571,1.29751],[103.85694,1.29733],[103.85679,1.29714],[103.85669,1.29701],[103.8566,1.2969],[103.8565,1.29675],[103.85645,1.29668],[103.8564,1.29661],[103.85634,1.29652],[103.85602,1.29607],[103.85592,1.29592],[103.85577,1.2957],[103.8557,1.29559],[103.85569,1.29558],[103.85563,1.29549],[103.85559,1.29543],[103.85555,1.29537],[103.85555,1.29537],[103.85539,1.29549],[103.85524,1.29561],[103.8552,1.29564],[103.85515,1.29569],[103.85441,1.29627],[103.85415,1.29648],[103.8541,1.29641],[103.85402,1.29632],[103.85394,1.29621],[103.85386,1.29611],[103.85386,1.29611],[103.85376,1.29619],[103.85369,1.29625],[103.85363,1.2963],[103.85353,1.29638],[103.85343,1.29646],[103.85336,1.29651],[103.85331,1.29655],[103.85327,1.29659],[103.85322,1.29663],[103.85317,1.29665],[103.85311,1.29665],[103.85303,1.29665],[103.85301,1.29666],[103.85296,1.29668],[103.85287,1.29674],[103.85273,1.29686],[103.85272,1.29686],[103.8526,1.29671],[103.85253,1.29663],[103.85251,1.29661],[103.85246,1.29656],[103.85241,1.29649],[103.85236,1.29645],[103.85231,1.29638],[103.85228,1.29636],[103.85228,1.29635],[103.85223,1.2963],[103.85216,1.29623],[103.85205,1.29611],[103.85201,1.29607],[103.8518,1.29588],[103.85175,1.29583],[103.85151,1.29557],[103.85132,1.29536],[103.85116,1.29519],[103.85106,1.29508],[103.85101,1.29503],[103.85079,1.29479],[103.85067,1.29463],[103.8505,1.29439],[103.85038,1.29418],[103.85014,1.29367],[103.85003,1.29346],[103.84991,1.29323],[103.84957,1.29251],[103.84955,1.29246],[103.84934,1.29191],[103.84905,1.29137],[103.84901,1.29129],[103.84889,1.29105],[103.84872,1.29071],[103.84868,1.29062],[103.84865,1.29058],[103.84827,1.29009],[103.84827,1.29008],[103.84827,1.29008],[103.84826,1.29007],[103.84806,1.28982],[103.84918,1.28918],[103.84921,1.28916],[103.84929,1.2891],[103.84938,1.28903],[103.84939,1.28901],[103.84942,1.28898],[103.84956,1.28876],[103.84969,1.28853],[103.84984,1.28822],[103.84995,1.28796],[103.8503,1.28711],[103.85041,1.28688],[103.85068,1.28649],[103.85082,1.2863],[103.85097,1.28626],[103.85107,1.28624],[103.85139,1.28617],[103.85148,1.28616],[103.85152,1.28615],[103.85162,1.28616],[103.85162,1.28616],[103.85171,1.28617],[103.85177,1.28619],[103.85198,1.28629],[103.85214,1.28638],[103.8523,1.28647],[103.85232,1.28648],[103.85236,1.28651],[103.8524,1.28654],[103.85243,1.28656],[103.85293,1.28717],[103.85295,1.28719],[103.85309,1.28736],[103.85308,1.28737],[103.85306,1.28738],[103.85319,1.28754],[103.85348,1.28797],[103.85365,1.28821],[103.85415,1.28818],[103.85417,1.28824],[103.85428,1.28892],[103.85429,1.28894],[103.85429,1.28894],[103.85441,1.28959],[103.85443,1.28969],[103.85453,1.29023],[103.85474,1.29094],[103.85492,1.29137],[103.85527,1.29215],[103.85589,1.29309],[103.85709,1.29507],[103.85732,1.29543]]]}}]}